NORAD_CAT_ID,OBJECT_NAME,OBJECT_TYPE,EPOCH,MEAN_MOTION,ECCENTRICITY,INCLINATION,RA_OF_ASC_NODE,ARG_OF_PERICENTER,MEAN_ANOMALY,BSTAR,MEAN_MOTION_DOT,MEAN_MOTION_DDOT,TLE_LINE0,TLE_LINE1,TLE_LINE2,SEMIMAJOR_AXIS,PERIOD,APOGEE,PERIGEE,DECAYED
56795.0,STARLINK-6061,PAYLOAD,2023-11-10 17:40:56,15.68137205,0.0003522,69.9986,313.7113,251.9394,108.1417,-0.0016875,-0.00184665,0.0,0 STARLINK-6061,1 56795U 23078AE  23314.73676765 -.00184665  00000-0 -16875-2 0  9993,2 56795  69.9986 313.7113 0003522 251.9394 108.1417 15.68137205 25967,6742.368,91.829,366.608,361.859,0.0
56795.0,STARLINK-6061,PAYLOAD,2023-11-11 06:00:02,15.65787031,0.0003592,69.9996,312.2733,266.6033,109.5489,-0.0099555,-0.0092152,0.0,0 STARLINK-6061,1 56795U 23078AE  23315.25002315 -.00921520  00000-0 -99555-2 0  9990,2 56795  69.9996 312.2733 0003592 266.6033 109.5489 15.65787031 26049,6749.113,91.967,373.402,368.554,0.0
56795.0,STARLINK-6061,PAYLOAD,2023-11-11 14:00:01,15.65157213,0.0003423,69.9994,311.3423,270.5907,183.463,-0.010644,-0.00957034,0.0,0 STARLINK-6061,1 56795U 23078AE  23315.58334491 -.00957034  00000-0 -10644-1 0  9999,2 56795  69.9994 311.3423 0003423 270.5907 183.4630 15.65157213  5993,6750.924,92.004,375.099,370.478,0.0
56795.0,STARLINK-6061,PAYLOAD,2023-11-11 22:00:01,15.64455553,0.0003345,69.9996,310.4126,262.637,268.685,-0.0098162,-0.00866357,0.0,0 STARLINK-6061,1 56795U 23078AE  23315.91668981 -.00866357  00000-0 -98162-2 0  9999,2 56795  69.9996 310.4126 0003345 262.6370 268.6850 15.64455553  6048,6752.942,92.045,377.066,372.548,0.0
56795.0,STARLINK-6061,PAYLOAD,2023-11-12 12:00:02,15.63343314,0.0003356,69.9991,308.787,268.1212,306.4003,-0.010925,-0.00917753,0.0,0 STARLINK-6061,1 56795U 23078AE  23316.50002315 -.00917753  00000-0 -10925-1 0  9995,2 56795  69.9991 308.7870 0003356 268.1212 306.4003 15.63343314 26231,6756.145,92.11,380.277,375.742,0.0
56795.0,STARLINK-6061,PAYLOAD,2023-11-12 14:00:01,15.63198156,0.0003494,69.9991,308.5549,266.8472,56.4391,-0.011485,-0.00955548,0.0,0 STARLINK-6061,1 56795U 23078AE  23316.58334491 -.00955548  00000-0 -11485-1 0  9992,2 56795  69.9991 308.5549 0003494 266.8472  56.4391 15.63198156  5925,6756.563,92.119,380.789,376.067,0.0
56795.0,STARLINK-6061,PAYLOAD,2023-11-12 22:00:00,15.62499724,0.0003502,69.9993,307.6276,262.0575,136.084,-0.010615,-0.00867277,0.0,0 STARLINK-6061,1 56795U 23078AE  23316.91667824 -.00867277  00000-0 -10615-1 0  9993,2 56795  69.9993 307.6276 0003502 262.0575 136.0840 15.62499724  5979,6758.576,92.16,382.808,378.074,0.0
56795.0,STARLINK-6061,PAYLOAD,2023-11-13 14:00:01,15.6123659,0.0003221,69.9993,305.7754,265.3193,280.1596,-0.012293,-0.00947974,0.0,0 STARLINK-6061,1 56795U 23078AE  23317.58334491 -.00947974  00000-0 -12293-1 0  9995,2 56795  69.9993 305.7754 0003221 265.3193 280.1596 15.61236590 26408,6762.221,92.235,386.264,381.908,0.0
56795.0,STARLINK-6061,PAYLOAD,2023-11-13 22:00:00,15.6054772,0.0003398,69.9996,304.851,258.0049,359.9782,-0.011535,-0.00873104,0.0,0 STARLINK-6061,1 56795U 23078AE  23317.91667824 -.00873104  00000-0 -11535-1 0  9992,2 56795  69.9996 304.8510 0003398 258.0049 359.9782 15.60547720  5997,6764.211,92.275,388.374,383.777,0.0
56795.0,STARLINK-6061,PAYLOAD,2023-11-14 06:00:00,15.59908145,0.0003476,69.9994,303.9274,264.6697,65.0338,-0.012323,-0.00906898,0.0,0 STARLINK-6061,1 56795U 23078AE  23318.25001157 -.00906898  00000-0 -12323-1 0  9994,2 56795  69.9994 303.9274 0003476 264.6697  65.0338 15.59908145 26514,6766.06,92.313,390.277,385.573,0.0
56795.0,STARLINK-6061,PAYLOAD,2023-11-14 14:00:01,15.5927811,0.0003471,69.9992,303.0044,266.6607,133.9689,-0.013209,-0.00945117,0.0,0 STARLINK-6061,1 56795U 23078AE  23318.58334491 -.00945117  00000-0 -13209-1 0  9991,2 56795  69.9992 303.0044 0003471 266.6607 133.9689 15.59278110  6004,6767.882,92.35,392.096,387.398,0.0
56795.0,STARLINK-6061,PAYLOAD,2023-11-14 22:00:00,15.58591466,0.0003384,69.9996,302.0825,261.2208,209.5656,-0.012483,-0.00876492,0.0,0 STARLINK-6061,1 56795U 23078AE  23318.91667824 -.00876492  00000-0 -12483-1 0  9999,2 56795  69.9996 302.0825 0003384 261.2208 209.5656 15.58591466  6055,6769.87,92.391,394.026,389.444,0.0
56795.0,STARLINK-6061,PAYLOAD,2023-11-15 06:00:02,15.57943561,0.0003303,69.9998,301.1614,267.0334,273.1916,-0.01303,-0.00891321,0.0,0 STARLINK-6061,1 56795U 23078AE  23319.25002315 -.00891321  00000-0 -13030-1 0  9992,2 56795  69.9998 301.1614 0003303 267.0334 273.1916 15.57943561 26669,6771.747,92.43,395.848,391.375,0.0
56795.0,STARLINK-6061,PAYLOAD,2023-11-15 14:00:01,15.57326603,0.0003365,69.9996,300.2412,266.0558,342.7477,-0.014433,-0.00957811,0.0,0 STARLINK-6061,1 56795U 23078AE  23319.58335648 -.00957811  00000-0 -14433-1 0  9991,2 56795  69.9996 300.2412 0003365 266.0558 342.7477 15.57326603  6034,6773.535,92.466,397.679,393.121,0.0
56795.0,STARLINK-6061,PAYLOAD,2023-11-15 20:00:01,15.56776842,0.0003374,69.9996,299.5518,261.3273,308.3522,-0.01285,-0.00845471,0.0,0 STARLINK-6061,1 56795U 23078AE  23319.83334491 -.00845471  00000-0 -12850-1 0  9993,2 56795  69.9996 299.5518 0003374 261.3273 308.3522 15.56776842 26756,6775.129,92.499,399.28,394.709,0.0
56795.0,STARLINK-6061,PAYLOAD,2023-11-15 22:00:00,15.56636474,0.0003514,69.9999,299.3222,261.4249,55.1218,-0.013366,-0.00872368,0.0,0 STARLINK-6061,1 56795U 23078AE  23319.91667824 -.00872368  00000-0 -13366-1 0  9999,2 56795  69.9999 299.3222 0003514 261.4249  55.1218 15.56636474  6055,6775.537,92.507,399.783,395.021,0.0
56795.0,STARLINK-6061,PAYLOAD,2023-11-16 06:00:00,15.55988985,0.0003417,69.9998,298.4039,268.1046,115.4717,-0.014106,-0.00896391,0.0,0 STARLINK-6061,1 56795U 23078AE  23320.25001157 -.00896391  00000-0 -14106-1 0  9994,2 56795  69.9998 298.4039 0003417 268.1046 115.4717 15.55988985 26828,6777.416,92.546,401.597,396.965,0.0
56795.0,STARLINK-6061,PAYLOAD,2023-11-16 14:00:01,15.55364652,0.0003323,69.9996,297.4864,268.528,181.2809,-0.015368,-0.00948833,0.0,0 STARLINK-6061,1 56795U 23078AE  23320.58334491 -.00948833  00000-0 -15368-1 0  9990,2 56795  69.9996 297.4864 0003323 268.5280 181.2809 15.55364652  6034,6779.23,92.583,403.348,398.842,0.0
56795.0,STARLINK-6061,PAYLOAD,2023-11-16 22:00:01,15.54689551,0.0003336,70.0002,296.57,261.9549,253.3754,-0.014649,-0.00888006,0.0,0 STARLINK-6061,1 56795U 23078AE  23320.91668981 -.00888006  00000-0 -14649-1 0  9997,2 56795  70.0002 296.5700 0003336 261.9549 253.3754 15.54689551 26920,6781.192,92.623,405.319,400.795,0.0
56795.0,STARLINK-6061,PAYLOAD,2023-11-17 14:00:01,15.53410959,0.0003483,69.9997,294.7396,264.2684,19.5677,-0.01663,-0.00968752,0.0,0 STARLINK-6061,1 56795U 23078AE  23321.58334491 -.00968752  00000-0 -16630-1 0  9996,2 56795  69.9997 294.7396 0003483 264.2684  19.5677 15.53410959 27032,6784.913,92.699,409.141,404.415,0.0
56795.0,STARLINK-6061,PAYLOAD,2023-11-17 22:00:01,15.52733893,0.0003594,70.0001,293.8257,260.5518,86.4595,-0.015766,-0.0088977,0.0,0 STARLINK-6061,1 56795U 23078AE  23321.91668981 -.00889770  00000-0 -15766-1 0  9998,2 56795  70.0001 293.8257 0003594 260.5518  86.4595 15.52733893  5981,6786.885,92.74,411.189,406.311,0.0
56795.0,STARLINK-6061,PAYLOAD,2023-11-18 06:00:00,15.52063543,0.000355,70.0001,292.9127,266.7907,142.4977,-0.015768,-0.00870385,0.0,0 STARLINK-6061,1 56795U 23078AE  23322.25001157 -.00870385  00000-0 -15768-1 0  9996,2 56795  70.0001 292.9127 0003550 266.7907 142.4977 15.52063543 27135,6788.839,92.78,413.114,408.294,0.0
56795.0,STARLINK-6061,PAYLOAD,2023-11-18 14:00:01,15.51289414,0.0003476,69.9998,292.0006,264.461,206.3842,-0.0021744,-0.00126173,0.0,0 STARLINK-6061,1 56795U 23078AE  23322.58334491 -.00126173  00000-0 -21744-2 0  9993,2 56795  69.9998 292.0006 0003476 264.4610 206.3842 15.51289414 27189,6791.097,92.826,415.323,410.602,0.0
56795.0,STARLINK-6061,PAYLOAD,2023-11-18 22:00:00,15.51229231,0.0003431,70.0001,291.0896,260.3562,271.4179,0.00015163,8.753e-05,0.0,0 STARLINK-6061,1 56795U 23078AE  23322.91667824  .00008753  00000-0  15163-3 0  9999,2 56795  70.0001 291.0896 0003431 260.3562 271.4179 15.51229231 27238,6791.273,92.83,415.468,410.808,0.0
56795.0,STARLINK-6061,PAYLOAD,2023-11-19 14:00:01,15.51246602,0.0003309,69.9996,289.2668,268.4541,25.2232,-0.0010835,-0.00063353,0.0,0 STARLINK-6061,1 56795U 23078AE  23323.58335648 -.00063353  00000-0 -10835-2 0  9998,2 56795  69.9996 289.2668 0003309 268.4541  25.2232 15.51246602  5933,6791.222,92.829,415.335,410.84,0.0
56795.0,STARLINK-6061,PAYLOAD,2023-11-19 22:00:00,15.51231071,0.0003348,70.0002,288.3556,264.5381,89.9782,0.00011996,6.889e-05,0.0,0 STARLINK-6061,1 56795U 23078AE  23323.91667824  .00006889  00000-0  11996-3 0  9998,2 56795  70.0002 288.3556 0003348 264.5381  89.9782 15.51231071 27397,6791.268,92.829,415.406,410.859,0.0
56795.0,STARLINK-6061,PAYLOAD,2023-11-20 14:00:01,15.51227848,0.0003357,69.9996,286.5327,269.2123,207.1467,-0.00052784,-0.00031053,0.0,0 STARLINK-6061,1 56795U 23078AE  23324.58334491 -.00031053  00000-0 -52784-3 0  9996,2 56795  69.9996 286.5327 0003357 269.2123 207.1467 15.51227848 27490,6791.277,92.83,415.422,410.862,0.0
56795.0,STARLINK-6061,PAYLOAD,2023-11-20 22:00:00,15.51245434,0.0003362,70.0,285.6214,264.9356,272.3202,-0.00031897,-0.00018871,0.0,0 STARLINK-6061,1 56795U 23078AE  23324.91667824 -.00018871  00000-0 -31897-3 0  9997,2 56795  70.0000 285.6214 0003362 264.9356 272.3202 15.51245434 27548,6791.226,92.829,415.374,410.807,0.0
56795.0,STARLINK-6061,PAYLOAD,2023-11-21 14:00:01,15.51232882,0.0003257,69.9996,283.7985,271.0979,28.0006,-0.0006724,-0.00039477,0.0,0 STARLINK-6061,1 56795U 23078AE  23325.58334491 -.00039477  00000-0 -67240-3 0  9998,2 56795  69.9996 283.7985 0003257 271.0979  28.0006 15.51232882  6038,6791.262,92.829,415.339,410.915,0.0
56795.0,STARLINK-6061,PAYLOAD,2023-11-21 22:00:01,15.51238773,0.0003317,69.9999,282.8874,266.8444,93.217,-9.4677e-05,-5.725e-05,0.0,0 STARLINK-6061,1 56795U 23078AE  23325.91668981 -.00005725  00000-0 -94677-4 0  9993,2 56795  69.9999 282.8874 0003317 266.8444  93.2170 15.51238773 27702,6791.245,92.829,415.363,410.857,0.0
